SL-8 R/B                
1 11574U 79089B   26061.53211795  .00000285  00000+0  94139-4 0  9993
2 11574  74.0673 104.2945 0017104 277.6823  82.2391 14.42345054435076
SL-14 R/B               
1 11672U 80005B   26061.74778223  .00000710  00000+0  69342-4 0  9990
2 11672  82.5157 313.8205 0015567 180.9466 179.1727 14.90920563475455
SL-8 R/B                
1 12139U 81003B   26061.71503018  .00019842  00000+0  51315-3 0  9999
2 12139  82.9395 296.4730 0262736 202.8612 156.0754 15.10656978313623
SL-3 R/B                
1 12465U 81046B   26061.77568521  .00014125  00000+0  33057-3 0  9996
2 12465  81.2313 298.0461 0020138  45.6598 314.6290 15.41779847437360
SL-3 R/B                
1 12904U 81103B   26061.80040513  .00006780  00000+0  30166-3 0  9994
2 12904  81.1567 221.5134 0012564 311.8549  48.1609 15.21271025972184
SL-3 R/B                
1 13068U 82013B   26061.74563551  .00005676  00000+0  24637-3 0  9991
2 13068  81.1771 168.9071 0022289 201.0884 158.9432 15.21929234403291
SL-3 R/B                
1 13154U 82039B   26061.76547774  .00003334  00000+0  20157-3 0  9998
2 13154  81.1579 223.9447 0029903 347.0452  13.0001 15.10031044380595
SL-3 R/B                
1 13403U 82079B   26061.77617736  .00008389  00000+0  33550-3 0  9992
2 13403  81.1471 201.2385 0024816 188.1120 171.9715 15.24672458376649
SL-14 R/B               
1 13553U 82092B   26061.72099935  .00000591  00000+0  63599-4 0  9997
2 13553  82.5704 147.9165 0019464 328.0161 146.7796 14.86657907327895
SL-3 R/B                
1 13819U 83010B   26061.57760894  .00019515  00000+0  39583-3 0  9996
2 13819  81.1055  10.9628 0018501  73.5167 286.8109 15.46047834356846
SL-3 R/B                
1 14208U 83075B   26061.79199225  .00013008  00000+0  34550-3 0  9998
2 14208  97.6131  66.1089 0019699 252.8444 107.0644 15.38214633329098
COSMOS 1536             
1 14699U 84013A   26061.62770266  .00007554  00000+0  31257-3 0  9997
2 14699  82.5440 114.8705 0012856 311.3422  48.6708 15.23714150271549
SL-14 R/B               
1 14820U 84027B   26061.62270188  .00000586  00000+0  64193-4 0  9990
2 14820  82.5381 251.6426 0017978   1.8919 358.2362 14.85967653246588
SL-8 R/B                
1 15483U 85006B   26061.77215860  .00000196  00000+0  73556-4 0  9996
2 15483  74.0434 273.8784 0018732 193.2287 241.2485 14.37777855153039
SL-12 R/B(2)            
1 15772U 85042D   26061.52790718  .00000166  00000+0  96211-4 0  9990
2 15772  71.1065 102.8608 0033575 139.8596 327.3242 14.21980154113376
SL-14 R/B               
1 15945U 85069B   26061.40767142  .00000681  00000+0  74197-4 0  9994
2 15945  82.5269  31.7800 0017841 212.5320 147.4799 14.86422948171753
SL-16 R/B               
1 16182U 85097B   26061.72374987  .00000025  00000+0  36487-4 0  9997
2 16182  71.0037 155.2185 0009912 267.9358 205.4325 14.16599518 86246
